{
  "type": "FeatureCollection",
  "features": [
    {
      "type": "Feature",
      "properties": {
        "norad_id": 43823,
        "name": "GEO-KOMPSAT-2A",
        "group": "weather",
        "lat": -0.021138841299998695,
        "lon": -17.125049317834193,
        "alt_km": 35787.03035306816,
        "timestamp": "2025-12-13T08:49:15.336767+00:00",
        "meta_object_name": "GEO-KOMPSAT-2A",
        "meta_object_id": "2018-100A",
        "meta_epoch": "2025-12-12T22:39:01.067904",
        "meta_mean_motion": 1.00273748,
        "meta_eccentricity": 4.284e-05,
        "meta_inclination": 0.0545,
        "meta_ra_of_asc_node": 140.9276,
        "meta_arg_of_pericenter": 344.7461,
        "meta_mean_anomaly": 64.2316,
        "meta_ephemeris_type": 0,
        "meta_classification_type": "U",
        "meta_norad_cat_id": 43823,
        "meta_element_set_no": 999,
        "meta_rev_at_epoch": 2576,
        "meta_bstar": 0,
        "meta_mean_motion_dot": -3.31e-06,
        "meta_mean_motion_ddot": 0,
        "tle_line1": "1 43823U 18100A   25346.94376236 -.00000331  00000+0  00000+0 0  9996",
        "tle_line2": "2 43823   0.0545 140.9276 0000428 344.7461  64.2316  1.00273748 25762"
      },
      "geometry": {
        "type": "Point",
        "coordinates": [
          -17.125049317834193,
          -0.021138841299998695
        ]
      }
    },
    {
      "type": "Feature",
      "properties": {
        "norad_id": 44387,
        "name": "METEOR-M2 2",
        "group": "weather",
        "lat": -7.8353261713336915,
        "lon": -31.66092027026111,
        "alt_km": 815.5581556351017,
        "timestamp": "2025-12-13T08:49:15.336779+00:00",
        "meta_object_name": "METEOR-M2 2",
        "meta_object_id": "2019-038A",
        "meta_epoch": "2025-12-13T00:25:41.139264",
        "meta_mean_motion": 14.24291553,
        "meta_eccentricity": 0.00012545,
        "meta_inclination": 98.8975,
        "meta_ra_of_asc_node": 326.7499,
        "meta_arg_of_pericenter": 146.549,
        "meta_mean_anomaly": 213.5768,
        "meta_ephemeris_type": 0,
        "meta_classification_type": "U",
        "meta_norad_cat_id": 44387,
        "meta_element_set_no": 999,
        "meta_rev_at_epoch": 33479,
        "meta_bstar": 0.0001307679,
        "meta_mean_motion_dot": 2.56e-06,
        "meta_mean_motion_ddot": 0,
        "tle_line1": "1 44387U 19038A   25347.01783726  .00000256  00000+0  13077-3 0  9995",
        "tle_line2": "2 44387  98.8975 326.7499 0001254 146.5490 213.5768 14.24291553334799"
      },
      "geometry": {
        "type": "Point",
        "coordinates": [
          -31.66092027026111,
          -7.8353261713336915
        ]
      }
    },
    {
      "type": "Feature",
      "properties": {
        "norad_id": 47719,
        "name": "ARKTIKA-M 1",
        "group": "weather",
        "lat": 61.32249150849097,
        "lon": -163.58308880867335,
        "alt_km": 37053.27757551258,
        "timestamp": "2025-12-13T08:49:15.336808+00:00",
        "meta_object_name": "ARKTIKA-M 1",
        "meta_object_id": "2021-016A",
        "meta_epoch": "2025-12-09T14:03:23.859648",
        "meta_mean_motion": 2.00631311,
        "meta_eccentricity": 0.7202538,
        "meta_inclination": 63.1769,
        "meta_ra_of_asc_node": 84.4506,
        "meta_arg_of_pericenter": 269.1116,
        "meta_mean_anomaly": 15.6235,
        "meta_ephemeris_type": 0,
        "meta_classification_type": "U",
        "meta_norad_cat_id": 47719,
        "meta_element_set_no": 999,
        "meta_rev_at_epoch": 3498,
        "meta_bstar": 0,
        "meta_mean_motion_dot": -6.1e-07,
        "meta_mean_motion_ddot": 0,
        "tle_line1": "1 47719U 21016A   25343.58569282 -.00000061  00000+0  00000+0 0  9996",
        "tle_line2": "2 47719  63.1769  84.4506 7202538 269.1116  15.6235  2.00631311 34985"
      },
      "geometry": {
        "type": "Point",
        "coordinates": [
          -163.58308880867335,
          61.32249150849097
        ]
      }
    },
    {
      "type": "Feature",
      "properties": {
        "norad_id": 49008,
        "name": "FENGYUN 3E",
        "group": "weather",
        "lat": -57.471995281905784,
        "lon": 1.8524444494205636,
        "alt_km": 832.4961968600855,
        "timestamp": "2025-12-13T08:49:15.336839+00:00",
        "meta_object_name": "FENGYUN 3E",
        "meta_object_id": "2021-062A",
        "meta_epoch": "2025-12-13T00:38:24.072000",
        "meta_mean_motion": 14.19879675,
        "meta_eccentricity": 5.473e-05,
        "meta_inclination": 98.7481,
        "meta_ra_of_asc_node": 347.5442,
        "meta_arg_of_pericenter": 266.1344,
        "meta_mean_anomaly": 93.977,
        "meta_ephemeris_type": 0,
        "meta_classification_type": "U",
        "meta_norad_cat_id": 49008,
        "meta_element_set_no": 999,
        "meta_rev_at_epoch": 23016,
        "meta_bstar": -1.663791e-06,
        "meta_mean_motion_dot": -4.7e-07,
        "meta_mean_motion_ddot": 0,
        "tle_line1": "1 49008U 21062A   25347.02666750 -.00000047  00000+0 -16638-5 0  9996",
        "tle_line2": "2 49008  98.7481 347.5442 0000547 266.1344  93.9770 14.19879675230165"
      },
      "geometry": {
        "type": "Point",
        "coordinates": [
          1.8524444494205636,
          -57.471995281905784
        ]
      }
    },
    {
      "type": "Feature",
      "properties": {
        "norad_id": 51850,
        "name": "GOES 18",
        "group": "weather",
        "lat": 0.001526447267232167,
        "lon": 77.61571606418157,
        "alt_km": 35787.578725316314,
        "timestamp": "2025-12-13T08:49:15.336857+00:00",
        "meta_object_name": "GOES 18",
        "meta_object_id": "2022-021A",
        "meta_epoch": "2025-12-12T23:06:09.232704",
        "meta_mean_motion": 1.0027199,
        "meta_eccentricity": 6.155e-05,
        "meta_inclination": 0.0366,
        "meta_ra_of_asc_node": 177.2443,
        "meta_arg_of_pericenter": 132.6146,
        "meta_mean_anomaly": 341.5837,
        "meta_ephemeris_type": 0,
        "meta_classification_type": "U",
        "meta_norad_cat_id": 51850,
        "meta_element_set_no": 999,
        "meta_rev_at_epoch": 472,
        "meta_bstar": 0,
        "meta_mean_motion_dot": 1.09e-06,
        "meta_mean_motion_ddot": 0,
        "tle_line1": "1 51850U 22021A   25346.96260686  .00000109  00000+0  00000+0 0  9997",
        "tle_line2": "2 51850   0.0366 177.2443 0000615 132.6146 341.5837  1.00271990  4722"
      },
      "geometry": {
        "type": "Point",
        "coordinates": [
          77.61571606418157,
          0.001526447267232167
        ]
      }
    },
    {
      "type": "Feature",
      "properties": {
        "norad_id": 54234,
        "name": "NOAA 21 (JPSS-2)",
        "group": "weather",
        "lat": -52.10626784290616,
        "lon": -64.9241113000435,
        "alt_km": 833.8673171447163,
        "timestamp": "2025-12-13T08:49:15.336869+00:00",
        "meta_object_name": "NOAA 21 (JPSS-2)",
        "meta_object_id": "2022-150A",
        "meta_epoch": "2025-12-12T22:55:12.313632",
        "meta_mean_motion": 14.19524464,
        "meta_eccentricity": 0.00022206,
        "meta_inclination": 98.7462,
        "meta_ra_of_asc_node": 283.2605,
        "meta_arg_of_pericenter": 37.8624,
        "meta_mean_anomaly": 322.2708,
        "meta_ephemeris_type": 0,
        "meta_classification_type": "U",
        "meta_norad_cat_id": 54234,
        "meta_element_set_no": 999,
        "meta_rev_at_epoch": 16012,
        "meta_bstar": 0.00010430791,
        "meta_mean_motion_dot": 1.76e-06,
        "meta_mean_motion_ddot": 0,
        "tle_line1": "1 54234U 22150A   25346.95500363  .00000176  00000+0  10431-3 0  9994",
        "tle_line2": "2 54234  98.7462 283.2605 0002220  37.8624 322.2708 14.19524464160122"
      },
      "geometry": {
        "type": "Point",
        "coordinates": [
          -64.9241113000435,
          -52.10626784290616
        ]
      }
    },
    {
      "type": "Feature",
      "properties": {
        "norad_id": 54743,
        "name": "METEOSAT-12 (MTG-I1)",
        "group": "weather",
        "lat": -0.143918989559559,
        "lon": -145.66712658759013,
        "alt_km": 35781.825939757844,
        "timestamp": "2025-12-13T08:49:15.336886+00:00",
        "meta_object_name": "METEOSAT-12 (MTG-I1)",
        "meta_object_id": "2022-170C",
        "meta_epoch": "2025-12-12T22:02:19.582080",
        "meta_mean_motion": 1.00269096,
        "meta_eccentricity": 0.00017147,
        "meta_inclination": 0.6872,
        "meta_ra_of_asc_node": 23.6564,
        "meta_arg_of_pericenter": 237.036,
        "meta_mean_anomaly": 151.4914,
        "meta_ephemeris_type": 0,
        "meta_classification_type": "U",
        "meta_norad_cat_id": 54743,
        "meta_element_set_no": 999,
        "meta_rev_at_epoch": 1111,
        "meta_bstar": 0,
        "meta_mean_motion_dot": 5e-08,
        "meta_mean_motion_ddot": 0,
        "tle_line1": "1 54743U 22170C   25346.91828220  .00000005  00000+0  00000+0 0  9990",
        "tle_line2": "2 54743   0.6872  23.6564 0001714 237.0360 151.4914  1.00269096 11110"
      },
      "geometry": {
        "type": "Point",
        "coordinates": [
          -145.66712658759013,
          -0.143918989559559
        ]
      }
    }
  ]
}